{
"type": "FeatureCollection",
"name": "test",
"crs": { "type": "name", "properties": { "name": "urn:ogc:def:crs:OGC:1.3:CRS84" } },
"features": [
{ "type": "Feature", "properties": { "id": 1 }, "geometry": { "type": "MultiLineString", "coordinates": [ [ [ 113.510755856081744, 23.171015492259141 ], [ 113.511759223283121, 23.169077528773801 ], [ 113.512421997948266, 23.167266480771158 ], [ 113.513158414242838, 23.165988577019007 ], [ 113.513811983704301, 23.165260758834894 ], [ 113.514668067646781, 23.164532936694844 ], [ 113.514971839368286, 23.164219802696575 ], [ 113.516582750012716, 23.164896848259367 ], [ 113.51752168078832, 23.165413093200787 ], [ 113.518672331248624, 23.165963188079182 ], [ 113.519933444153139, 23.166538669533203 ], [ 113.521176146650276, 23.167131074328761 ], [ 113.522851493720452, 23.167782716576546 ], [ 113.52502392178954, 23.168586686408066 ], [ 113.526975424970217, 23.169212933247657 ], [ 113.528356205522584, 23.169805326210604 ], [ 113.527214760265935, 23.172022545176535 ], [ 113.526478343971334, 23.17327500378061 ], [ 113.525732722473094, 23.174400514015019 ], [ 113.525272462288939, 23.175229831289553 ], [ 113.524388762735441, 23.17625377716173 ], [ 113.523615525626099, 23.177683903325743 ], [ 113.523007982183032, 23.17869090607066 ], [ 113.521829716111711, 23.180154854528318 ], [ 113.520964426965577, 23.181178762717167 ], [ 113.520320062707782, 23.182219586977702 ], [ 113.519869007727337, 23.183302712570409 ], [ 113.519602056820574, 23.184368905761488 ], [ 113.519353516321132, 23.184800457732671 ], [ 113.51839617513815, 23.184766610569554 ], [ 113.516601160420095, 23.184258902095198 ], [ 113.51512832783088, 23.183683496828351 ], [ 113.513342518316477, 23.183192708027459 ], [ 113.511786838894167, 23.182693455503458 ], [ 113.510369237527058, 23.182270358685741 ], [ 113.50850058117949, 23.181864184481991 ], [ 113.506779208090904, 23.181559553020005 ], [ 113.505223528668566, 23.18105183237541 ], [ 113.505485876973495, 23.180895284788061 ], [ 113.505550313399269, 23.180066002621817 ], [ 113.505338593714612, 23.178720523683733 ], [ 113.504915154345269, 23.178678212805902 ], [ 113.504915154345269, 23.178678212805902 ] ] ] } }
]
}
