{
"type": "FeatureCollection",
"name": "snap_polygon1",
"crs": { "type": "name", "properties": { "name": "urn:ogc:def:crs:OGC:1.3:CRS84" } },
"features": [
{ "type": "Feature", "properties": { }, "geometry": { "type": "Polygon", "coordinates": [ [ [ 113.287941, 23.219741 ], [ 113.288056, 23.220163 ], [ 113.288515, 23.220163 ], [ 113.288171, 23.220585 ], [ 113.28886, 23.220374 ], [ 113.28886, 23.219636 ], [ 113.287941, 23.219636 ], [ 113.288515, 23.219108 ], [ 113.287712, 23.219425 ], [ 113.287941, 23.219741 ] ] ] } },
{ "type": "Feature", "properties": { }, "geometry": { "type": "Polygon", "coordinates": [ [ [ 113.290582, 23.209719 ], [ 113.290811, 23.210352 ], [ 113.29127, 23.210246 ], [ 113.291385, 23.210563 ], [ 113.29127, 23.209613 ], [ 113.290582, 23.209719 ] ] ] } },
{ "type": "Feature", "properties": { }, "geometry": { "type": "Polygon", "coordinates": [ [ [ 113.292533, 23.231768 ], [ 113.293566, 23.23124 ], [ 113.293681, 23.230818 ], [ 113.29414, 23.231029 ], [ 113.294829, 23.230502 ], [ 113.293452, 23.230713 ], [ 113.293337, 23.231135 ], [ 113.292418, 23.23124 ], [ 113.292189, 23.231662 ], [ 113.292533, 23.231768 ] ] ] } },
{ "type": "Feature", "properties": { }, "geometry": { "type": "Polygon", "coordinates": [ [ [ 113.292418, 23.239047 ], [ 113.292074, 23.239468 ], [ 113.292992, 23.239996 ], [ 113.293681, 23.239785 ], [ 113.293681, 23.239468 ], [ 113.294485, 23.239785 ], [ 113.294944, 23.239679 ], [ 113.295174, 23.239363 ], [ 113.294944, 23.239152 ], [ 113.294829, 23.239363 ], [ 113.2946, 23.239152 ], [ 113.294485, 23.239363 ], [ 113.29414, 23.239152 ], [ 113.293107, 23.239152 ], [ 113.292533, 23.239363 ], [ 113.292418, 23.239047 ] ] ] } },
{ "type": "Feature", "properties": { }, "geometry": { "type": "Polygon", "coordinates": [ [ [ 113.292878, 23.214994 ], [ 113.292304, 23.214994 ], [ 113.292533, 23.215521 ], [ 113.293452, 23.215416 ], [ 113.292992, 23.215099 ], [ 113.292992, 23.214677 ], [ 113.293222, 23.214994 ], [ 113.293452, 23.214677 ], [ 113.292648, 23.214255 ], [ 113.292878, 23.214994 ] ] ] } },
{ "type": "Feature", "properties": { }, "geometry": { "type": "Polygon", "coordinates": [ [ [ 113.292763, 23.216471 ], [ 113.292992, 23.217209 ], [ 113.293337, 23.217104 ], [ 113.293452, 23.216576 ], [ 113.292878, 23.215943 ], [ 113.292418, 23.216365 ], [ 113.292763, 23.216471 ] ] ] } },
{ "type": "Feature", "properties": { }, "geometry": { "type": "Polygon", "coordinates": [ [ [ 113.29724, 23.217842 ], [ 113.29724, 23.218475 ], [ 113.297814, 23.218686 ], [ 113.297584, 23.218264 ], [ 113.297929, 23.218264 ], [ 113.297929, 23.218053 ], [ 113.29747, 23.217526 ], [ 113.296896, 23.217526 ], [ 113.29747, 23.217737 ], [ 113.29724, 23.217842 ] ] ] } },
{ "type": "Feature", "properties": { }, "geometry": { "type": "Polygon", "coordinates": [ [ [ 113.298158, 23.219214 ], [ 113.297929, 23.219741 ], [ 113.298388, 23.219636 ], [ 113.298503, 23.220269 ], [ 113.299192, 23.219741 ], [ 113.299306, 23.219108 ], [ 113.298158, 23.219214 ] ] ] } },
{ "type": "Feature", "properties": { }, "geometry": { "type": "Polygon", "coordinates": [ [ [ 113.303095, 23.227548 ], [ 113.302521, 23.228287 ], [ 113.304817, 23.228392 ], [ 113.305161, 23.229236 ], [ 113.305505, 23.229236 ], [ 113.30562, 23.228076 ], [ 113.306194, 23.227865 ], [ 113.306194, 23.227548 ], [ 113.30562, 23.227654 ], [ 113.305276, 23.228076 ], [ 113.304128, 23.227548 ], [ 113.303095, 23.227548 ] ] ] } },
{ "type": "Feature", "properties": { }, "geometry": { "type": "Polygon", "coordinates": [ [ [ 113.304931, 23.226493 ], [ 113.304817, 23.225966 ], [ 113.303554, 23.226071 ], [ 113.303669, 23.226599 ], [ 113.305161, 23.226704 ], [ 113.306309, 23.226493 ], [ 113.306194, 23.225755 ], [ 113.30585, 23.22586 ], [ 113.305965, 23.226282 ], [ 113.305276, 23.226282 ], [ 113.304931, 23.226493 ] ] ] } },
{ "type": "Feature", "properties": { }, "geometry": { "type": "Polygon", "coordinates": [ [ [ 113.309179, 23.233139 ], [ 113.309409, 23.233667 ], [ 113.309638, 23.233667 ], [ 113.309409, 23.233878 ], [ 113.309638, 23.234722 ], [ 113.309064, 23.234933 ], [ 113.309409, 23.235038 ], [ 113.309294, 23.235776 ], [ 113.309638, 23.235882 ], [ 113.309983, 23.235144 ], [ 113.309868, 23.233139 ], [ 113.309638, 23.232928 ], [ 113.308949, 23.232823 ], [ 113.309179, 23.233139 ] ] ] } },
{ "type": "Feature", "properties": { }, "geometry": { "type": "Polygon", "coordinates": [ [ [ 113.312393, 23.232823 ], [ 113.312279, 23.232612 ], [ 113.311475, 23.232823 ], [ 113.311819, 23.232612 ], [ 113.311016, 23.232401 ], [ 113.310901, 23.233034 ], [ 113.312393, 23.233034 ], [ 113.312393, 23.232823 ] ] ] } },
{ "type": "Feature", "properties": { }, "geometry": { "type": "Polygon", "coordinates": [ [ [ 113.311131, 23.235144 ], [ 113.31159, 23.23546 ], [ 113.311131, 23.2343 ], [ 113.310442, 23.234194 ], [ 113.311131, 23.235144 ] ] ] } },
{ "type": "Feature", "properties": { }, "geometry": { "type": "Polygon", "coordinates": [ [ [ 113.31159, 23.237886 ], [ 113.311475, 23.238203 ], [ 113.312393, 23.238414 ], [ 113.312508, 23.238836 ], [ 113.313541, 23.23873 ], [ 113.31423, 23.239363 ], [ 113.314919, 23.239363 ], [ 113.314919, 23.23873 ], [ 113.313771, 23.237253 ], [ 113.313656, 23.237886 ], [ 113.313082, 23.237781 ], [ 113.313771, 23.235565 ], [ 113.31423, 23.235038 ], [ 113.31446, 23.235249 ], [ 113.314804, 23.234405 ], [ 113.315837, 23.234194 ], [ 113.315149, 23.233667 ], [ 113.314919, 23.233772 ], [ 113.314575, 23.232506 ], [ 113.31423, 23.232506 ], [ 113.31423, 23.23219 ], [ 113.313427, 23.234616 ], [ 113.31159, 23.237886 ] ] ] } },
{ "type": "Feature", "properties": { }, "geometry": { "type": "Polygon", "coordinates": [ [ [ 113.312853, 23.220058 ], [ 113.314575, 23.222801 ], [ 113.314919, 23.222801 ], [ 113.315263, 23.221746 ], [ 113.315952, 23.222168 ], [ 113.316411, 23.223012 ], [ 113.31733, 23.222801 ], [ 113.317904, 23.223328 ], [ 113.319396, 23.223012 ], [ 113.321118, 23.224278 ], [ 113.322266, 23.224489 ], [ 113.322036, 23.223645 ], [ 113.32261, 23.223539 ], [ 113.32261, 23.225333 ], [ 113.323184, 23.225438 ], [ 113.323644, 23.225122 ], [ 113.325021, 23.225966 ], [ 113.326973, 23.225966 ], [ 113.32858, 23.227021 ], [ 113.330761, 23.226915 ], [ 113.330876, 23.227337 ], [ 113.331794, 23.227337 ], [ 113.331565, 23.226915 ], [ 113.328121, 23.22586 ], [ 113.327202, 23.224911 ], [ 113.326743, 23.224911 ], [ 113.326973, 23.2247 ], [ 113.326628, 23.2247 ], [ 113.326169, 23.223856 ], [ 113.32571, 23.22375 ], [ 113.325595, 23.222906 ], [ 113.326054, 23.222062 ], [ 113.327088, 23.22164 ], [ 113.326743, 23.220902 ], [ 113.326399, 23.220902 ], [ 113.326169, 23.219214 ], [ 113.32571, 23.21953 ], [ 113.32571, 23.221218 ], [ 113.324906, 23.222168 ], [ 113.323184, 23.222168 ], [ 113.32307, 23.221851 ], [ 113.32261, 23.222062 ], [ 113.322496, 23.22164 ], [ 113.322036, 23.221957 ], [ 113.321577, 23.22164 ], [ 113.321807, 23.221113 ], [ 113.321462, 23.221218 ], [ 113.320774, 23.220269 ], [ 113.318363, 23.218792 ], [ 113.316871, 23.218792 ], [ 113.316871, 23.219847 ], [ 113.315837, 23.219636 ], [ 113.31423, 23.220269 ], [ 113.31446, 23.219741 ], [ 113.313886, 23.219952 ], [ 113.313886, 23.219636 ], [ 113.313082, 23.219425 ], [ 113.312853, 23.220058 ] ] ] } },
{ "type": "Feature", "properties": { }, "geometry": { "type": "Polygon", "coordinates": [ [ [ 113.3171, 23.224067 ], [ 113.316871, 23.2247 ], [ 113.318019, 23.224594 ], [ 113.317904, 23.223645 ], [ 113.316871, 23.22375 ], [ 113.3171, 23.224067 ] ] ] } },
{ "type": "Feature", "properties": { }, "geometry": { "type": "Polygon", "coordinates": [ [ [ 113.316182, 23.233139 ], [ 113.316297, 23.233456 ], [ 113.317215, 23.233456 ], [ 113.317215, 23.233878 ], [ 113.318592, 23.233772 ], [ 113.318707, 23.23335 ], [ 113.31733, 23.233139 ], [ 113.31733, 23.232823 ], [ 113.316756, 23.232612 ], [ 113.316297, 23.232717 ], [ 113.316526, 23.232928 ], [ 113.316182, 23.233139 ] ] ] } },
{ "type": "Feature", "properties": { }, "geometry": { "type": "Polygon", "coordinates": [ [ [ 113.3171, 23.239468 ], [ 113.318019, 23.239363 ], [ 113.318248, 23.239152 ], [ 113.316182, 23.239152 ], [ 113.316297, 23.239468 ], [ 113.3171, 23.239468 ] ] ] } },
{ "type": "Feature", "properties": { }, "geometry": { "type": "Polygon", "coordinates": [ [ [ 113.318363, 23.200117 ], [ 113.318707, 23.199906 ], [ 113.318592, 23.200012 ], [ 113.318707, 23.200434 ], [ 113.31974, 23.200856 ], [ 113.319626, 23.200328 ], [ 113.318937, 23.200328 ], [ 113.318822, 23.1998 ], [ 113.318248, 23.1998 ], [ 113.318019, 23.200223 ], [ 113.318363, 23.200117 ] ] ] } },
{ "type": "Feature", "properties": { }, "geometry": { "type": "Polygon", "coordinates": [ [ [ 113.318133, 23.217104 ], [ 113.317904, 23.218581 ], [ 113.318822, 23.218686 ], [ 113.318707, 23.216787 ], [ 113.318248, 23.216682 ], [ 113.318133, 23.217104 ] ] ] } },
{ "type": "Feature", "properties": { }, "geometry": { "type": "Polygon", "coordinates": [ [ [ 113.318937, 23.233772 ], [ 113.318592, 23.234511 ], [ 113.319052, 23.235144 ], [ 113.319281, 23.234933 ], [ 113.31974, 23.235354 ], [ 113.319166, 23.235671 ], [ 113.319052, 23.236515 ], [ 113.317674, 23.235565 ], [ 113.318019, 23.235882 ], [ 113.317904, 23.237253 ], [ 113.318363, 23.237886 ], [ 113.31974, 23.238203 ], [ 113.321233, 23.237042 ], [ 113.320888, 23.234827 ], [ 113.321462, 23.235565 ], [ 113.321348, 23.236198 ], [ 113.321807, 23.237042 ], [ 113.322955, 23.237148 ], [ 113.320659, 23.233245 ], [ 113.3202, 23.23335 ], [ 113.319855, 23.233034 ], [ 113.31997, 23.233456 ], [ 113.319626, 23.233772 ], [ 113.318937, 23.233772 ] ] ] } },
{ "type": "Feature", "properties": { }, "geometry": { "type": "Polygon", "coordinates": [ [ [ 113.319626, 23.203282 ], [ 113.319511, 23.203705 ], [ 113.31974, 23.203388 ], [ 113.320085, 23.20381 ], [ 113.320659, 23.203493 ], [ 113.320314, 23.202755 ], [ 113.319626, 23.203282 ] ] ] } },
{ "type": "Feature", "properties": { }, "geometry": { "type": "Polygon", "coordinates": [ [ [ 113.320314, 23.204865 ], [ 113.321003, 23.205182 ], [ 113.320888, 23.205498 ], [ 113.321462, 23.205393 ], [ 113.320888, 23.205076 ], [ 113.321003, 23.204654 ], [ 113.320544, 23.20476 ], [ 113.320659, 23.204338 ], [ 113.31997, 23.204443 ], [ 113.320314, 23.204865 ] ] ] } },
{ "type": "Feature", "properties": { }, "geometry": { "type": "Polygon", "coordinates": [ [ [ 113.320888, 23.238625 ], [ 113.320544, 23.238519 ], [ 113.321577, 23.239785 ], [ 113.32307, 23.239574 ], [ 113.32284, 23.239047 ], [ 113.322496, 23.239152 ], [ 113.321118, 23.238414 ], [ 113.320888, 23.238625 ] ] ] } },
{ "type": "Feature", "properties": { }, "geometry": { "type": "Polygon", "coordinates": [ [ [ 113.321807, 23.20993 ], [ 113.322381, 23.20993 ], [ 113.322496, 23.209402 ], [ 113.32284, 23.209613 ], [ 113.322955, 23.209402 ], [ 113.322496, 23.209086 ], [ 113.322036, 23.209086 ], [ 113.322266, 23.209719 ], [ 113.322036, 23.209402 ], [ 113.321233, 23.209402 ], [ 113.321807, 23.20993 ] ] ] } },
{ "type": "Feature", "properties": { }, "geometry": { "type": "Polygon", "coordinates": [ [ [ 113.321692, 23.227443 ], [ 113.321807, 23.227021 ], [ 113.32284, 23.226704 ], [ 113.32284, 23.225649 ], [ 113.321922, 23.225544 ], [ 113.321692, 23.227443 ] ] ] } },
{ "type": "Feature", "properties": { }, "geometry": { "type": "Polygon", "coordinates": [ [ [ 113.32284, 23.215416 ], [ 113.32284, 23.21531 ], [ 113.322381, 23.215416 ], [ 113.32261, 23.216049 ], [ 113.322955, 23.216049 ], [ 113.32307, 23.215627 ], [ 113.323644, 23.215838 ], [ 113.323529, 23.21531 ], [ 113.32284, 23.215416 ] ] ] } },
{ "type": "Feature", "properties": { }, "geometry": { "type": "Polygon", "coordinates": [ [ [ 113.32307, 23.231557 ], [ 113.32284, 23.231979 ], [ 113.323414, 23.23219 ], [ 113.323184, 23.232401 ], [ 113.323988, 23.232401 ], [ 113.323988, 23.231979 ], [ 113.323644, 23.232084 ], [ 113.323644, 23.231768 ], [ 113.32307, 23.231557 ] ] ] } },
{ "type": "Feature", "properties": { }, "geometry": { "type": "Polygon", "coordinates": [ [ [ 113.324103, 23.204338 ], [ 113.324332, 23.204971 ], [ 113.323988, 23.205498 ], [ 113.324447, 23.205182 ], [ 113.325021, 23.205709 ], [ 113.324562, 23.204971 ], [ 113.325021, 23.204549 ], [ 113.324677, 23.204549 ], [ 113.324332, 23.203916 ], [ 113.324103, 23.204338 ] ] ] } },
{ "type": "Feature", "properties": { }, "geometry": { "type": "Polygon", "coordinates": [ [ [ 113.323644, 23.233772 ], [ 113.323873, 23.233667 ], [ 113.324218, 23.2343 ], [ 113.324562, 23.2343 ], [ 113.324562, 23.233772 ], [ 113.323758, 23.233139 ], [ 113.323184, 23.23335 ], [ 113.323644, 23.233772 ] ] ] } },
{ "type": "Feature", "properties": { }, "geometry": { "type": "Polygon", "coordinates": [ [ [ 113.325251, 23.213095 ], [ 113.325825, 23.213306 ], [ 113.326054, 23.212989 ], [ 113.328695, 23.213306 ], [ 113.327202, 23.212884 ], [ 113.327317, 23.212356 ], [ 113.327088, 23.212884 ], [ 113.326284, 23.212673 ], [ 113.32594, 23.212673 ], [ 113.32594, 23.212989 ], [ 113.324677, 23.212884 ], [ 113.325251, 23.213095 ] ] ] } },
{ "type": "Feature", "properties": { }, "geometry": { "type": "Polygon", "coordinates": [ [ [ 113.326743, 23.216893 ], [ 113.327088, 23.216682 ], [ 113.326973, 23.216365 ], [ 113.325366, 23.216787 ], [ 113.325251, 23.217104 ], [ 113.326743, 23.216893 ] ] ] } },
{ "type": "Feature", "properties": { }, "geometry": { "type": "Polygon", "coordinates": [ [ [ 113.325366, 23.218159 ], [ 113.325366, 23.218475 ], [ 113.326284, 23.218475 ], [ 113.32571, 23.217948 ], [ 113.326973, 23.217526 ], [ 113.327088, 23.217842 ], [ 113.327317, 23.217526 ], [ 113.327891, 23.217842 ], [ 113.328006, 23.217526 ], [ 113.326514, 23.217315 ], [ 113.325366, 23.218159 ] ] ] } },
{ "type": "Feature", "properties": { }, "geometry": { "type": "Polygon", "coordinates": [ [ [ 113.327776, 23.214677 ], [ 113.328006, 23.215521 ], [ 113.329154, 23.216365 ], [ 113.329039, 23.215416 ], [ 113.328465, 23.214994 ], [ 113.328121, 23.215205 ], [ 113.327891, 23.214572 ], [ 113.328465, 23.214572 ], [ 113.32858, 23.21415 ], [ 113.327776, 23.214255 ], [ 113.327662, 23.213833 ], [ 113.327776, 23.214677 ] ] ] } },
{ "type": "Feature", "properties": { }, "geometry": { "type": "Polygon", "coordinates": [ [ [ 113.333057, 23.214888 ], [ 113.332139, 23.215099 ], [ 113.333057, 23.215205 ], [ 113.333287, 23.215521 ], [ 113.333516, 23.215627 ], [ 113.333631, 23.21531 ], [ 113.333861, 23.21531 ], [ 113.333746, 23.215416 ], [ 113.333861, 23.216365 ], [ 113.33409, 23.216154 ], [ 113.334205, 23.216576 ], [ 113.334894, 23.216787 ], [ 113.334549, 23.21531 ], [ 113.333516, 23.214888 ], [ 113.333287, 23.214361 ], [ 113.332368, 23.214361 ], [ 113.333057, 23.214888 ] ] ] } },
{ "type": "Feature", "properties": { }, "geometry": { "type": "Polygon", "coordinates": [ [ [ 113.332598, 23.237992 ], [ 113.33122, 23.238203 ], [ 113.332254, 23.238519 ], [ 113.331565, 23.239679 ], [ 113.332139, 23.239785 ], [ 113.332828, 23.238414 ], [ 113.333516, 23.238097 ], [ 113.333516, 23.237464 ], [ 113.332598, 23.237992 ] ] ] } },
{ "type": "Feature", "properties": { }, "geometry": { "type": "Polygon", "coordinates": [ [ [ 113.335238, 23.218686 ], [ 113.335812, 23.218792 ], [ 113.335927, 23.219214 ], [ 113.336042, 23.218581 ], [ 113.335583, 23.218686 ], [ 113.335583, 23.21837 ], [ 113.334664, 23.218159 ], [ 113.334205, 23.218475 ], [ 113.335238, 23.218686 ] ] ] } },
{ "type": "Feature", "properties": { }, "geometry": { "type": "Polygon", "coordinates": [ [ [ 113.335468, 23.222273 ], [ 113.335353, 23.22259 ], [ 113.335927, 23.222273 ], [ 113.337419, 23.222801 ], [ 113.338338, 23.221957 ], [ 113.337649, 23.221218 ], [ 113.33719, 23.221218 ], [ 113.337305, 23.221535 ], [ 113.336845, 23.22164 ], [ 113.337075, 23.222168 ], [ 113.336042, 23.222168 ], [ 113.336271, 23.221851 ], [ 113.335583, 23.22164 ], [ 113.335468, 23.222273 ] ] ] } },
{ "type": "Feature", "properties": { }, "geometry": { "type": "Polygon", "coordinates": [ [ [ 113.335009, 23.224911 ], [ 113.335583, 23.225122 ], [ 113.336271, 23.225016 ], [ 113.334549, 23.2247 ], [ 113.334435, 23.225122 ], [ 113.335009, 23.224911 ] ] ] } },
{ "type": "Feature", "properties": { }, "geometry": { "type": "Polygon", "coordinates": [ [ [ 113.334549, 23.231346 ], [ 113.333746, 23.231346 ], [ 113.333516, 23.231873 ], [ 113.334894, 23.231557 ], [ 113.335468, 23.230607 ], [ 113.334549, 23.231346 ] ] ] } },
{ "type": "Feature", "properties": { }, "geometry": { "type": "Polygon", "coordinates": [ [ [ 113.33983, 23.222695 ], [ 113.340863, 23.223012 ], [ 113.340749, 23.223539 ], [ 113.341093, 23.22375 ], [ 113.341552, 23.223539 ], [ 113.341093, 23.223434 ], [ 113.341667, 23.223117 ], [ 113.341552, 23.222801 ], [ 113.340634, 23.222695 ], [ 113.340404, 23.222168 ], [ 113.34006, 23.222168 ], [ 113.340289, 23.222379 ], [ 113.33983, 23.222695 ] ] ] } },
{ "type": "Feature", "properties": { }, "geometry": { "type": "Polygon", "coordinates": [ [ [ 113.343619, 23.214044 ], [ 113.343733, 23.214361 ], [ 113.344422, 23.214255 ], [ 113.344422, 23.214572 ], [ 113.344996, 23.21415 ], [ 113.344652, 23.213622 ], [ 113.344193, 23.213622 ], [ 113.344307, 23.213939 ], [ 113.343389, 23.213939 ], [ 113.343619, 23.214044 ] ] ] } },
{ "type": "Feature", "properties": { }, "geometry": { "type": "Polygon", "coordinates": [ [ [ 113.344193, 23.215205 ], [ 113.343733, 23.215416 ], [ 113.344307, 23.215521 ], [ 113.345111, 23.216471 ], [ 113.345341, 23.215732 ], [ 113.344996, 23.214677 ], [ 113.343963, 23.214994 ], [ 113.344193, 23.215205 ] ] ] } },
{ "type": "Feature", "properties": { }, "geometry": { "type": "Polygon", "coordinates": [ [ [ 113.343274, 23.218475 ], [ 113.343963, 23.218792 ], [ 113.343963, 23.218053 ], [ 113.343274, 23.217737 ], [ 113.343274, 23.218475 ] ] ] } },
{ "type": "Feature", "properties": { }, "geometry": { "type": "Polygon", "coordinates": [ [ [ 113.3427, 23.22586 ], [ 113.342471, 23.226388 ], [ 113.34293, 23.226282 ], [ 113.343619, 23.22681 ], [ 113.344078, 23.226388 ], [ 113.345111, 23.226282 ], [ 113.344996, 23.225966 ], [ 113.343848, 23.225755 ], [ 113.3427, 23.22586 ] ] ] } },
{ "type": "Feature", "properties": { }, "geometry": { "type": "Polygon", "coordinates": [ [ [ 113.344078, 23.228076 ], [ 113.344193, 23.228498 ], [ 113.345111, 23.22892 ], [ 113.344996, 23.227548 ], [ 113.344078, 23.227759 ], [ 113.344078, 23.228076 ] ] ] } },
{ "type": "Feature", "properties": { }, "geometry": { "type": "Polygon", "coordinates": [ [ [ 113.350277, 23.221746 ], [ 113.351195, 23.221535 ], [ 113.352228, 23.221957 ], [ 113.352343, 23.221218 ], [ 113.350966, 23.220902 ], [ 113.350851, 23.221218 ], [ 113.350621, 23.221007 ], [ 113.350162, 23.221324 ], [ 113.350277, 23.221746 ] ] ] } },
{ "type": "Feature", "properties": { }, "geometry": { "type": "Polygon", "coordinates": [ [ [ 113.347063, 23.229447 ], [ 113.347522, 23.23008 ], [ 113.347751, 23.23008 ], [ 113.347751, 23.229342 ], [ 113.346948, 23.228709 ], [ 113.346833, 23.229131 ], [ 113.347063, 23.229447 ] ] ] } },
{ "type": "Feature", "properties": { }, "geometry": { "type": "Polygon", "coordinates": [ [ [ 113.348899, 23.230713 ], [ 113.349244, 23.231873 ], [ 113.349933, 23.231873 ], [ 113.350047, 23.232295 ], [ 113.350506, 23.23219 ], [ 113.350621, 23.231557 ], [ 113.351195, 23.231451 ], [ 113.351195, 23.230818 ], [ 113.350277, 23.23008 ], [ 113.349244, 23.230186 ], [ 113.348899, 23.230713 ] ] ] } },
{ "type": "Feature", "properties": { }, "geometry": { "type": "Polygon", "coordinates": [ [ [ 113.350047, 23.234933 ], [ 113.350392, 23.235249 ], [ 113.350621, 23.234933 ], [ 113.350966, 23.235671 ], [ 113.351884, 23.236409 ], [ 113.351884, 23.235249 ], [ 113.351195, 23.235354 ], [ 113.350851, 23.234827 ], [ 113.349703, 23.234405 ], [ 113.350047, 23.234933 ] ] ] } },
{ "type": "Feature", "properties": { }, "geometry": { "type": "Polygon", "coordinates": [ [ [ 113.347407, 23.237042 ], [ 113.347177, 23.23662 ], [ 113.346833, 23.236726 ], [ 113.347292, 23.237253 ], [ 113.348211, 23.236831 ], [ 113.347522, 23.236515 ], [ 113.347407, 23.237042 ] ] ] } },
{ "type": "Feature", "properties": { }, "geometry": { "type": "Polygon", "coordinates": [ [ [ 113.350392, 23.22586 ], [ 113.350736, 23.226071 ], [ 113.350621, 23.226599 ], [ 113.351884, 23.226177 ], [ 113.351769, 23.225755 ], [ 113.350277, 23.225333 ], [ 113.350392, 23.22586 ] ] ] } },
{ "type": "Feature", "properties": { }, "geometry": { "type": "Polygon", "coordinates": [ [ [ 113.352343, 23.238308 ], [ 113.353721, 23.238519 ], [ 113.353836, 23.238097 ], [ 113.353491, 23.237886 ], [ 113.353376, 23.238203 ], [ 113.353262, 23.237781 ], [ 113.352228, 23.237675 ], [ 113.351654, 23.237886 ], [ 113.352343, 23.238308 ] ] ] } }
]
}
